start=new Date('%Y-%m-41T00:00:00.000Z').valueOf();
sats=[{"MEAN_MOTION_DOT":"-0.00000780","ELEMENT_SET_NO":"999","PERIOD":"95.593","OBJECT_NAME":"STARLINK-1413","MEAN_MOTION":"15.06393667","EPOCH":"2021-08-21T10:15:12.498336","EPHEMERIS_TYPE":"0","TLE_LINE2":"2 45689  53.0535 314.3268 0000977 143.1640 216.9416 15.06393667 68070","MEAN_MOTION_DDOT":"0.0000000000000","MEAN_ANOMALY":"216.9416","INCLINATION":"53.0535","PERIAPSIS":"546.556","REF_FRAME":"TEME","SITE":"AFETR","LAUNCH_DATE":"2020-06-04","MEAN_ELEMENT_THEORY":"SGP4","REV_AT_EPOCH":"6807","COUNTRY_CODE":"US","RCS_SIZE":"LARGE","NORAD_CAT_ID":"45689","OBJECT_ID":"2020-035AJ","DECAY_DATE":null,"FILE":"3100795","GP_ID":"183164072","APOAPSIS":"547.910","ARG_OF_PERICENTER":"143.1640","TLE_LINE1":"1 45689U 20035AJ  21233.42722799 -.00000780  00000-0 -33516-4 0  9994","TIME_SYSTEM":"UTC","BSTAR":"-0.00003351600000","SEMIMAJOR_AXIS":"6925.368","CENTER_NAME":"EARTH","RA_OF_ASC_NODE":"314.3268","CLASSIFICATION_TYPE":"U","ECCENTRICITY":"0.00009770","OBJECT_TYPE":"PAYLOAD"},{"PERIAPSIS":"549.090","REF_FRAME":"TEME","SITE":"AFETR","MEAN_ANOMALY":"250.1898","INCLINATION":"53.0020","NORAD_CAT_ID":"45690","LAUNCH_DATE":"2020-06-04","REV_AT_EPOCH":"6835","MEAN_ELEMENT_THEORY":"SGP4","RCS_SIZE":"LARGE","COUNTRY_CODE":"US","ELEMENT_SET_NO":"999","PERIOD":"95.644","OBJECT_NAME":"STARLINK-1414","MEAN_MOTION":"15.05582076","MEAN_MOTION_DOT":"-0.00001151","EPHEMERIS_TYPE":"0","TLE_LINE2":"2 45690  53.0020 317.5104 0000912 109.9189 250.1898 15.05582076 68350","MEAN_MOTION_DDOT":"0.0000000000000","EPOCH":"2021-08-20T17:08:00.942720","SEMIMAJOR_AXIS":"6927.857","TIME_SYSTEM":"UTC","TLE_LINE1":"1 45690U 20035AK  21232.71389980 -.00001151  00000-0 -59883-4 0  9996","BSTAR":"-0.00005988300000","ECCENTRICITY":"0.00009120","OBJECT_TYPE":"PAYLOAD","CENTER_NAME":"EARTH","RA_OF_ASC_NODE":"317.5104","CLASSIFICATION_TYPE":"U","GP_ID":"183153106","OBJECT_ID":"2020-035AK","DECAY_DATE":null,"FILE":"3100512","APOAPSIS":"550.353","ARG_OF_PERICENTER":"109.9189"},{"PERIAPSIS":"546.766","REF_FRAME":"TEME","SITE":"AFETR","INCLINATION":"53.0557","MEAN_ANOMALY":"200.5872","NORAD_CAT_ID":"45691","COUNTRY_CODE":"US","RCS_SIZE":"LARGE","MEAN_ELEMENT_THEORY":"SGP4","LAUNCH_DATE":"2020-06-04","REV_AT_EPOCH":"6846","PERIOD":"95.594","ELEMENT_SET_NO":"999","MEAN_MOTION":"15.06365965","OBJECT_NAME":"STARLINK-1415","MEAN_MOTION_DOT":"0.00004978","MEAN_MOTION_DDOT":"0.0000000000000","TLE_LINE2":"2 45691  53.0557 314.6898 0000797 159.5149 200.5872 15.06365965 68462","EPHEMERIS_TYPE":"0","EPOCH":"2021-08-21T08:18:27.444672","SEMIMAJOR_AXIS":"6925.453","TLE_LINE1":"1 45691U 20035AL  21233.34615098  .00004978  00000-0  35313-3 0  9998","TIME_SYSTEM":"UTC","BSTAR":"0.00035313000000","ECCENTRICITY":"0.00007970","OBJECT_TYPE":"PAYLOAD","RA_OF_ASC_NODE":"314.6898","CENTER_NAME":"EARTH","CLASSIFICATION_TYPE":"U","GP_ID":"183164491","DECAY_DATE":null,"OBJECT_ID":"2020-035AL","FILE":"3100824","APOAPSIS":"547.870","ARG_OF_PERICENTER":"159.5149"},{"CLASSIFICATION_TYPE":"U","RA_OF_ASC_NODE":"318.0012","CENTER_NAME":"EARTH","OBJECT_TYPE":"PAYLOAD","ECCENTRICITY":"0.00009250","BSTAR":"-0.00005979900000","TLE_LINE1":"1 45692U 20035AM  21232.60895780 -.00001172  00000-0 -59799-4 0  9995","TIME_SYSTEM":"UTC","SEMIMAJOR_AXIS":"6925.367","ARG_OF_PERICENTER":"106.4279","APOAPSIS":"547.873","FILE":"3100512","DECAY_DATE":null,"OBJECT_ID":"2020-035AM","GP_ID":"183154108","COUNTRY_CODE":"US","RCS_SIZE":"LARGE","REV_AT_EPOCH":"6835","LAUNCH_DATE":"2020-06-04","MEAN_ELEMENT_THEORY":"SGP4","NORAD_CAT_ID":"45692","INCLINATION":"53.0553","MEAN_ANOMALY":"253.6812","REF_FRAME":"TEME","SITE":"AFETR","PERIAPSIS":"546.591","EPOCH":"2021-08-20T14:36:53.953920","MEAN_MOTION_DDOT":"0.0000000000000","TLE_LINE2":"2 45692  53.0553 318.0012 0000925 106.4279 253.6812 15.06393961 68351","EPHEMERIS_TYPE":"0","MEAN_MOTION_DOT":"-0.00001172","OBJECT_NAME":"STARLINK-1416","MEAN_MOTION":"15.06393961","PERIOD":"95.593","ELEMENT_SET_NO":"999"},{"TLE_LINE2":"2 45693  53.0545 317.3222 0001106  97.3002 262.8113 15.06392749 68373","EPHEMERIS_TYPE":"0","MEAN_MOTION_DDOT":"0.0000000000000","EPOCH":"2021-08-20T18:14:29.306688","ELEMENT_SET_NO":"999","PERIOD":"95.593","MEAN_MOTION":"15.06392749","OBJECT_NAME":"STARLINK-1417","MEAN_MOTION_DOT":"-0.00005600","NORAD_CAT_ID":"45693","MEAN_ELEMENT_THEORY":"SGP4","LAUNCH_DATE":"2020-06-04","REV_AT_EPOCH":"6837","COUNTRY_CODE":"US","RCS_SIZE":"LARGE","PERIAPSIS":"546.470","REF_FRAME":"TEME","SITE":"AFETR","MEAN_ANOMALY":"262.8113","INCLINATION":"53.0545","APOAPSIS":"548.002","ARG_OF_PERICENTER":"97.3002","GP_ID":"183153357","OBJECT_ID":"2020-035AN","DECAY_DATE":null,"FILE":"3100512","ECCENTRICITY":"0.00011060","OBJECT_TYPE":"PAYLOAD","CENTER_NAME":"EARTH","RA_OF_ASC_NODE":"317.3222","CLASSIFICATION_TYPE":"U","SEMIMAJOR_AXIS":"6925.371","TLE_LINE1":"1 45693U 20035AN  21232.76006142 -.00005600  00000-0 -35745-3 0  9993","TIME_SYSTEM":"UTC","BSTAR":"-0.00035745000000"},{"REV_AT_EPOCH":"6808","LAUNCH_DATE":"2020-06-04","MEAN_ELEMENT_THEORY":"SGP4","RCS_SIZE":"LARGE","COUNTRY_CODE":"US","NORAD_CAT_ID":"45694","MEAN_ANOMALY":"240.7246","INCLINATION":"53.0543","SITE":"AFETR","REF_FRAME":"TEME","PERIAPSIS":"546.759","EPOCH":"2021-08-21T10:20:30.350112","EPHEMERIS_TYPE":"0","TLE_LINE2":"2 45694  53.0543 314.3085 0000645 119.3808 240.7246 15.06402509 68088","MEAN_MOTION_DDOT":"0.0000000000000","MEAN_MOTION_DOT":"0.00000842","MEAN_MOTION":"15.06402509","OBJECT_NAME":"STARLINK-1419","ELEMENT_SET_NO":"999","PERIOD":"95.592","CLASSIFICATION_TYPE":"U","CENTER_NAME":"EARTH","RA_OF_ASC_NODE":"314.3085","OBJECT_TYPE":"PAYLOAD","ECCENTRICITY":"0.00006450","BSTAR":"0.00007535600000","TLE_LINE1":"1 45694U 20035AP  21233.43090683  .00000842  00000-0  75356-4 0  9996","TIME_SYSTEM":"UTC","SEMIMAJOR_AXIS":"6925.341","ARG_OF_PERICENTER":"119.3808","APOAPSIS":"547.653","FILE":"3100796","OBJECT_ID":"2020-035AP","DECAY_DATE":null,"GP_ID":"183163696"},{"FILE":"3100636","OBJECT_ID":"2020-035AQ","DECAY_DATE":null,"GP_ID":"183160590","ARG_OF_PERICENTER":"90.1503","APOAPSIS":"547.887","BSTAR":"0.00007901000000","TLE_LINE1":"1 45695U 20035AQ  21232.89460623  .00000896  00000-0  79010-4 0  9991","TIME_SYSTEM":"UTC","SEMIMAJOR_AXIS":"6925.353","CLASSIFICATION_TYPE":"U","CENTER_NAME":"EARTH","RA_OF_ASC_NODE":"296.7165","OBJECT_TYPE":"PAYLOAD","ECCENTRICITY":"0.00009660","MEAN_MOTION_DOT":"0.00000896","MEAN_MOTION":"15.06398554","OBJECT_NAME":"STARLINK-1420","ELEMENT_SET_NO":"999","PERIOD":"95.592","EPOCH":"2021-08-20T21:28:13.978272","TLE_LINE2":"2 45695  53.0538 296.7165 0000966  90.1503 269.9596 15.06398554 68275","EPHEMERIS_TYPE":"0","MEAN_MOTION_DDOT":"0.0000000000000","MEAN_ANOMALY":"269.9596","INCLINATION":"53.0538","REF_FRAME":"TEME","SITE":"AFETR","PERIAPSIS":"546.549","MEAN_ELEMENT_THEORY":"SGP4","LAUNCH_DATE":"2020-06-04","REV_AT_EPOCH":"6827","COUNTRY_CODE":"US","RCS_SIZE":"LARGE","NORAD_CAT_ID":"45695"},{"COUNTRY_CODE":"US","RCS_SIZE":"LARGE","REV_AT_EPOCH":"6800","LAUNCH_DATE":"2020-06-04","MEAN_ELEMENT_THEORY":"SGP4","NORAD_CAT_ID":"45696","INCLINATION":"53.0546","MEAN_ANOMALY":"251.3534","REF_FRAME":"TEME","SITE":"AFETR","PERIAPSIS":"546.585","EPOCH":"2021-08-20T23:17:02.878944","MEAN_MOTION_DDOT":"0.0000000000000","TLE_LINE2":"2 45696  53.0546 316.3770 0000924 108.7555 251.3534 15.06396238 68008","EPHEMERIS_TYPE":"0","MEAN_MOTION_DOT":"-0.00001186","MEAN_MOTION":"15.06396238","OBJECT_NAME":"STARLINK-1422","PERIOD":"95.592","ELEMENT_SET_NO":"999","CLASSIFICATION_TYPE":"U","RA_OF_ASC_NODE":"316.3770","CENTER_NAME":"EARTH","OBJECT_TYPE":"PAYLOAD","ECCENTRICITY":"0.00009240","BSTAR":"-0.00006073700000","TLE_LINE1":"1 45696U 20035AR  21232.97017221 -.00001186  00000-0 -60737-4 0  9994","TIME_SYSTEM":"UTC","SEMIMAJOR_AXIS":"6925.360","ARG_OF_PERICENTER":"108.7555","APOAPSIS":"547.865","FILE":"3100651","DECAY_DATE":null,"OBJECT_ID":"2020-035AR","GP_ID":"183160263"},{"APOAPSIS":"547.717","ARG_OF_PERICENTER":"111.4196","GP_ID":"183152857","DECAY_DATE":null,"OBJECT_ID":"2020-035AS","FILE":"3100512","ECCENTRICITY":"0.00007030","OBJECT_TYPE":"PAYLOAD","RA_OF_ASC_NODE":"298.5628","CENTER_NAME":"EARTH","CLASSIFICATION_TYPE":"U","SEMIMAJOR_AXIS":"6925.365","TIME_SYSTEM":"UTC","TLE_LINE1":"1 45697U 20035AS  21232.48179139 -.00001312  00000-0 -69234-4 0  9990","BSTAR":"-0.00006923400000","MEAN_MOTION_DDOT":"0.0000000000000","EPHEMERIS_TYPE":"0","TLE_LINE2":"2 45697  53.0546 298.5628 0000703 111.4196 248.6868 15.06394695 68621","EPOCH":"2021-08-20T11:33:46.776096","PERIOD":"95.592","ELEMENT_SET_NO":"999","OBJECT_NAME":"STARLINK-1351","MEAN_MOTION":"15.06394695","MEAN_MOTION_DOT":"-0.00001312","NORAD_CAT_ID":"45697","COUNTRY_CODE":"US","RCS_SIZE":"LARGE","REV_AT_EPOCH":"6862","LAUNCH_DATE":"2020-06-04","MEAN_ELEMENT_THEORY":"SGP4","PERIAPSIS":"546.743","REF_FRAME":"TEME","SITE":"AFETR","INCLINATION":"53.0546","MEAN_ANOMALY":"248.6868"},{"COUNTRY_CODE":"US","RCS_SIZE":"LARGE","LAUNCH_DATE":"2020-06-04","REV_AT_EPOCH":"6865","MEAN_ELEMENT_THEORY":"SGP4","NORAD_CAT_ID":"45698","INCLINATION":"53.0562","MEAN_ANOMALY":"223.7542","PERIAPSIS":"546.689","SITE":"AFETR","REF_FRAME":"TEME","EPOCH":"2021-08-20T16:04:27.784992","MEAN_MOTION_DDOT":"0.0000000000000","TLE_LINE2":"2 45698  53.0562 297.7258 0000745 136.3506 223.7542 15.06402727 68659","EPHEMERIS_TYPE":"0","MEAN_MOTION_DOT":"0.00000730","PERIOD":"95.592","ELEMENT_SET_NO":"999","OBJECT_NAME":"STARLINK-1370","MEAN_MOTION":"15.06402727","RA_OF_ASC_NODE":"297.7258","CENTER_NAME":"EARTH","CLASSIFICATION_TYPE":"U","ECCENTRICITY":"0.00007450","OBJECT_TYPE":"PAYLOAD","TLE_LINE1":"1 45698U 20035AT  21232.66976603  .00000730  00000-0  67874-4 0  9991","TIME_SYSTEM":"UTC","BSTAR":"0.00006787400000","SEMIMAJOR_AXIS":"6925.340","APOAPSIS":"547.721","ARG_OF_PERICENTER":"136.3506","DECAY_DATE":null,"OBJECT_ID":"2020-035AT","FILE":"3100512","GP_ID":"183153107"}];
